     3.03           N                   C                   RINEX VERSION / TYPE
sbf2rin-13.4.5      RIGTC, GO PECNY     20210714 020307 UTC PGM / RUN BY / DATE 
BEIDOU NAVIGATION DATA FROM STATION GOP6 (RIGTC, GO PECNY)  COMMENT             
                                                            END OF HEADER       
C05 2021 07 14 01 00 00-4.657648969442E-05 1.664535176360E-11 0.000000000000E+00
     1.000000000000E+00-5.649375000000E+02-2.857261873569E-10-6.728106070224E-01
    -1.876009628177E-05 7.519515929744E-04 4.303641617298E-06 6.493484645844E+03
     2.628000000000E+05-1.210719347000E-08-3.060988045707E+00 3.585591912270E-08
     1.049135284696E-01-1.318593750000E+02-1.211059803033E+00 1.318626354652E-09
     3.671581507536E-10 0.000000000000E+00 8.100000000000E+02
     2.000000000000E+00 0.000000000000E+00-5.000000000000E-10-9.600000000000E-09
     2.628276000000E+05 0.000000000000E+00
C07 2021 07 14 01 00 00 1.243986189365E-04-4.094147243450E-11 0.000000000000E+00
     1.000000000000E+00-1.138125000000E+02 1.537564045714E-09-1.512337403518E+00
    -4.030764102936E-06 8.678590063937E-03 1.507811248302E-05 6.494000213623E+03
     2.628000000000E+05 7.124617695808E-08 7.996586712791E-02-2.901069819927E-07
     8.874932368213E-01-2.350156250000E+02-2.530855935508E+00-2.144375036113E-09
    -1.035043113700E-09 0.000000000000E+00 8.100000000000E+02
     2.000000000000E+00 0.000000000000E+00 1.450000000000E-08 6.000000000000E-10
     2.628180000000E+05 0.000000000000E+00
C10 2021 07 14 01 00 00-1.905590761453E-05 4.082068016942E-12 0.000000000000E+00
     1.000000000000E+00-1.110468750000E+02 1.534349626106E-09-1.841522787913E+00
    -3.720633685589E-06 7.636245107278E-03 1.459894701838E-05 6.493080549240E+03
     2.628000000000E+05 2.561137080193E-08 7.334374315273E-02-3.147870302200E-07
     8.892889204873E-01-2.177187500000E+02-2.541153278354E+00-2.122588414327E-09
    -1.011470703243E-09 0.000000000000E+00 8.100000000000E+02
     2.000000000000E+00 0.000000000000E+00 6.100000000000E-09 2.600000000000E-09
     2.628180000000E+05 0.000000000000E+00
C11 2021 07 13 23 00 00 4.560073139146E-04 2.234923357491E-11 0.000000000000E+00
     1.000000000000E+00 1.163437500000E+02 3.076913880099E-09-3.092871261223E+00
     5.618669092655E-06 1.855256967247E-03 8.096918463707E-06 5.282609073639E+03
     2.556000000000E+05 1.303851604462E-08 1.319767961062E+00-2.514570951462E-08
     9.903097541477E-01 2.119843750000E+02-2.065523310571E+00-6.544201163675E-09
     3.203704875739E-10 0.000000000000E+00 8.100000000000E+02
     2.000000000000E+00 0.000000000000E+00 3.600000000000E-09 1.200000000000E-09
     2.556180000000E+05 0.000000000000E+00
C19 2021 07 14 01 00 00 9.081215830520E-04 1.417177486474E-11 0.000000000000E+00
     1.000000000000E+00-1.194375000000E+02 3.716226224310E-09-2.505518906817E+00
    -5.810055881739E-06 8.843739051372E-04 9.292736649513E-06 5.282629364014E+03
     2.628000000000E+05-2.840533852577E-08-2.898343862376E+00 2.887099981308E-08
     9.668499126769E-01 1.760468750000E+02-1.017889853187E+00-6.692421623366E-09
    -3.893019302737E-11 0.000000000000E+00 8.100000000000E+02
     2.000000000000E+00 0.000000000000E+00 1.220000000000E-08 1.220000000000E-08
     2.628180000000E+05 1.000000000000E+00
C20 2021 07 14 01 00 00-8.458254160360E-04 1.116262637879E-11 0.000000000000E+00
     1.000000000000E+00-1.141093750000E+02 3.658009513636E-09-2.190462064852E+00
    -5.666632205248E-06 8.241434115916E-04 8.910894393921E-06 5.282636547089E+03
     2.628000000000E+05-6.379559636116E-08-2.897721089372E+00-3.678724169731E-08
     9.668460608135E-01 1.871718750000E+02-5.747632611512E-01-6.723851503975E-09
    -3.857303529318E-11 0.000000000000E+00 8.100000000000E+02
     2.000000000000E+00 0.000000000000E+00 2.300000000000E-08 2.300000000000E-08
     2.628180000000E+05 1.000000000000E+00
C21 2021 07 14 01 00 00-9.355401853099E-04-8.899547765395E-13 0.000000000000E+00
     1.000000000000E+00-1.287187500000E+02 3.668009930194E-09 1.938255542432E+00
    -6.398186087608E-06 7.408235687762E-04 9.572133421898E-06 5.282633663177E+03
     2.628000000000E+05 6.193295121193E-08-2.896067782745E+00 1.164153218269E-08
     9.661278938476E-01 1.695312500000E+02-7.510998149621E-01-6.779210952776E-09
    -1.303625729816E-10 0.000000000000E+00 8.100000000000E+02
     2.000000000000E+00 0.000000000000E+00 1.410000000000E-08 1.410000000000E-08
     2.640480000000E+05 1.000000000000E+00
C22 2021 07 14 01 00 00-9.483036119491E-04 6.483702463811E-14 0.000000000000E+00
     1.000000000000E+00-1.224375000000E+02 3.717297697513E-09 2.080513157724E+00
    -5.987472832203E-06 6.719775265083E-04 9.395647794008E-06 5.282630775452E+03
     2.628000000000E+05-1.257285475731E-08-2.896152494479E+00 9.499490261078E-08
     9.661365338418E-01 1.725468750000E+02-1.121792208291E-01-6.769210536218E-09
    -6.607418082628E-11 0.000000000000E+00 8.100000000000E+02
     2.000000000000E+00 0.000000000000E+00 1.660000000000E-08 1.660000000000E-08
     2.628180000000E+05 1.000000000000E+00
C23 2021 07 14 00 00 00-9.700116934255E-04 4.515499085755E-12 0.000000000000E+00
     1.000000000000E+00 7.750000000000E+00 4.439113478323E-09-1.981447960267E+00
     2.030283212662E-07 3.778900718316E-04 5.019363015890E-06 5.282610527039E+03
     2.592000000000E+05 3.725290298462E-09-7.924615166316E-01 4.656612873077E-09
     9.490863830860E-01 2.563593750000E+02-1.753657275802E+00-7.094938389805E-09
    -1.982225424788E-10 0.000000000000E+00 8.100000000000E+02
     2.000000000000E+00 0.000000000000E+00 2.500000000000E-08 2.500000000000E-08
     2.592180000000E+05 1.000000000000E+00
C27 2021 07 14 01 00 00 5.639470182359E-04 6.538769525832E-12 0.000000000000E+00
     1.000000000000E+00 1.075000000000E+02 3.473001807323E-09-1.066162275995E+00
     5.493871867657E-06 7.279935525730E-04 7.717870175838E-06 5.282621910095E+03
     2.628000000000E+05 2.468004822731E-08 1.310744483392E+00-6.053596735001E-09
     9.663448899492E-01 2.070781250000E+02 1.196063451747E+00-6.780639583713E-09
     2.978695503195E-10 0.000000000000E+00 8.100000000000E+02
     2.000000000000E+00 0.000000000000E+00-4.500000000000E-09-4.500000000000E-09
     2.628180000000E+05 1.000000000000E+00
C28 2021 07 14 01 00 00-5.092436913401E-05 4.556355293062E-12 0.000000000000E+00
     1.000000000000E+00 1.086406250000E+02 3.464787179436E-09-1.887743748996E+00
     5.457084625959E-06 1.744558103383E-04 7.830560207367E-06 5.282622123718E+03
     2.628000000000E+05-1.536682248116E-08 1.310566750549E+00 1.676380634308E-08
     9.662403351941E-01 2.046718750000E+02 2.806111229659E+00-6.745995283496E-09
     2.810831368123E-10 0.000000000000E+00 8.100000000000E+02
     2.000000000000E+00 0.000000000000E+00-4.400000000000E-09-4.400000000000E-09
     2.628180000000E+05 1.000000000000E+00
C30 2021 07 14 01 00 00 4.739613505080E-04 1.294075957503E-12 0.000000000000E+00
     1.000000000000E+00 1.083593750000E+02 3.471573176386E-09-1.273722506261E+00
     5.466397851706E-06 4.545511910692E-04 7.065944373608E-06 5.282623710632E+03
     2.628000000000E+05 1.396983861923E-09 1.272697973528E+00-1.210719347000E-08
     9.650887085271E-01 2.182343750000E+02 6.428870361055E-01-6.808497886980E-09
     2.353669468352E-10 0.000000000000E+00 8.100000000000E+02
     2.000000000000E+00 0.000000000000E+00-9.800000000000E-09-9.800000000000E-09
     2.641980000000E+05 1.000000000000E+00
C32 2021 07 13 23 00 00-9.246162371710E-04-1.096012169910E-12 0.000000000000E+00
     1.000000000000E+00-1.135937500000E+02 3.682296239562E-09-1.946618285837E+00
    -5.636829882860E-06 5.359383067116E-04 8.885748684406E-06 5.282630767822E+03
     2.556000000000E+05-6.984919309616E-08-2.903655760346E+00-3.445893526077E-08
     9.655289005771E-01 1.849843750000E+02-9.818358026365E-01-6.733851920533E-09
    -7.464596644698E-11 0.000000000000E+00 8.100000000000E+02
     2.000000000000E+00 0.000000000000E+00-9.300000000000E-09-9.300000000000E-09
     2.556180000000E+05 1.000000000000E+00
C36 2021 07 14 01 00 00-7.327928906307E-04-2.908784324518E-12 0.000000000000E+00
     1.000000000000E+00 4.562500000000E+00 4.540189117101E-09 2.319679734555E+00
     2.356246113777E-07 9.238345082849E-04 4.515517503023E-06 5.282612512589E+03
     2.628000000000E+05 1.490116119385E-08-7.949254656650E-01-6.239861249924E-08
     9.504900354280E-01 2.602812500000E+02-1.641537737641E+00-7.188513716165E-09
    -2.475103097979E-10 0.000000000000E+00 8.100000000000E+02
     2.000000000000E+00 0.000000000000E+00-1.860000000000E-08-1.860000000000E-08
     2.628180000000E+05 1.000000000000E+00
C37 2021 07 14 01 00 00-8.653607219458E-04 2.676081578556E-12 0.000000000000E+00
     1.000000000000E+00 8.984375000000E+00 4.411612332790E-09-2.821587952041E+00
     3.497116267681E-07 7.529748836532E-04 4.948116838932E-06 5.282609457016E+03
     2.628000000000E+05-2.933666110039E-08-7.950860223871E-01 2.468004822731E-08
     9.505038483005E-01 2.570468750000E+02-1.197366291478E+00-7.077794818564E-09
    -1.517920370333E-10 0.000000000000E+00 8.100000000000E+02
     2.000000000000E+00 0.000000000000E+00-1.330000000000E-08-1.330000000000E-08
     2.628180000000E+05 1.000000000000E+00
C08 2021 07 14 01 00 00-9.041125886142E-04-5.084821452783E-12 0.000000000000E+00
     1.000000000000E+00 4.120312500000E+01 1.256838066636E-09 2.789768844522E+00
     1.789070665836E-06 5.346312420443E-03-5.991198122501E-06 6.492840507507E+03
     2.628000000000E+05-2.379529178143E-07 2.243673256671E+00 1.150183379650E-07
     1.043755227909E+00 4.527812500000E+02-2.690935579559E+00-2.561535269654E-09
     2.567964108870E-10 0.000000000000E+00 8.100000000000E+02
     2.000000000000E+00 0.000000000000E+00 1.110000000000E-08-1.100000000000E-09
     2.663580000000E+05 0.000000000000E+00
